     2.100          NAVIGATION                              RINEX VERSION / TYPE
fic2rin                                 10/24/2015 00:08:49 PGM / RUN BY / DATE
                                                            END OF HEADER
18 15 10 24  0  0  0.0  .445898622274D-03  .363797880709D-11  .000000000000D+00
     .500000000000D+02  .251250000000D+02  .503592405216D-08 -.205797519456D+01
     .125542283058D-05  .163647917798D-01  .128075480461D-04  .515364710808D+04
     .518400000000D+06  .271946191788D-06  .273840096020D+01  .931322574615D-08
     .925331728512D+00  .106656250000D+03 -.193290470305D+01 -.801319092442D-08
     .378944355982D-09  .100000000000D+01  .186700000000D+04  .000000000000D+00
     .240000000000D+01  .000000000000D+00 -.111758708954D-07  .500000000000D+02
     .511206000000D+06  .400000000000D+01
19 15 10 24  0  0  0.0 -.521894544363D-03 -.454747350886D-12  .000000000000D+00
     .570000000000D+02  .200000000000D+02  .456411868529D-08  .966103539187D+00
     .123307108879D-05  .113374438370D-01  .426359474659D-05  .515515303802D+04
     .518400000000D+06 -.931322574615D-07  .762929527923D+00  .100582838058D-06
     .971039870977D+00  .303562500000D+03  .657187625017D+00 -.842285084555D-08
     .117862052285D-09  .100000000000D+01  .186700000000D+04  .000000000000D+00
     .240000000000D+01  .000000000000D+00 -.149011611938D-07  .570000000000D+02
     .511206000000D+06  .400000000000D+01
21 15 10 24  0  0  0.0 -.488744582981D-03 -.250111042988D-11  .000000000000D+00
     .270000000000D+02 -.887812500000D+02  .536915221817D-08 -.111722043276D+01
    -.412762165070D-05  .226252216380D-01  .745616853237D-05  .515373353195D+04
     .518400000000D+06  .633299350739D-07  .169554090942D+01  .571832060814D-06
     .934458467717D+00  .220625000000D+03 -.186899606029D+01 -.878929468083D-08
    -.360014996070D-09  .100000000000D+01  .186700000000D+04  .000000000000D+00
     .240000000000D+01  .000000000000D+00 -.116415321827D-07  .270000000000D+02
     .511206000000D+06  .400000000000D+01
22 15 10 24  0  0  0.0  .403724145144D-03  .375166564481D-11  .000000000000D+00
     .820000000000D+02  .196875000000D+02  .512057043517D-08 -.254336492083D+01
     .879168510437D-06  .799826532602D-02  .130012631416D-04  .515368468475D+04
     .518400000000D+06  .169500708580D-06  .273929622511D+01 -.223517417908D-07
     .923161817235D+00  .105562500000D+03 -.204575469961D+01 -.817962642856D-08
     .306084178206D-09  .100000000000D+01  .186700000000D+04  .000000000000D+00
     .340000000000D+01  .000000000000D+00 -.176951289177D-07  .820000000000D+02
     .511206000000D+06  .400000000000D+01
23 15 10 24  0  0  0.0 -.140507239848D-03 -.216004991671D-11  .000000000000D+00
     .890000000000D+02  .557812500000D+02  .540379651839D-08  .148111459457D+01
     .301748514175D-05  .103872095933D-01  .486895442009D-05  .515378151321D+04
     .518400000000D+06 -.577419996262D-07 -.247097078121D+01  .232830643654D-06
     .947549227766D+00  .281468750000D+03 -.262430156431D+01 -.876715090131D-08
     .175721605224D-09  .100000000000D+01  .186700000000D+04  .000000000000D+00
     .240000000000D+01  .000000000000D+00 -.200234353542D-07  .890000000000D+02
     .511206000000D+06  .400000000000D+01
24 15 10 24  0  0  0.0 -.682100653648D-05 -.682121026330D-12  .000000000000D+00
     .122000000000D+03 -.570937500000D+02  .500306554062D-08  .832779061985D+00
    -.288896262646D-05  .358625291847D-02  .727735459805D-05  .515365282059D+04
     .518400000000D+06  .726431608200D-07 -.144399216617D+01  .372529029846D-08
     .951595615286D+00  .230187500000D+03  .291995053189D+00 -.848428197583D-08
    -.651812864908D-09  .100000000000D+01  .186700000000D+04  .000000000000D+00
     .240000000000D+01  .000000000000D+00  .279396772385D-08  .122000000000D+03
     .511206000000D+06  .400000000000D+01
25 15 10 24  0  0  0.0 -.568311661482D-04 -.557065504836D-11  .000000000000D+00
     .107000000000D+03  .405000000000D+02  .386266089533D-08 -.124027932707D+01
     .199861824512D-05  .466963090003D-02  .128485262394D-04  .515361681557D+04
     .518400000000D+06  .176951289177D-06 -.377232095037D+00  .260770320892D-07
     .978794831899D+00  .142531250000D+03  .728994774610D+00 -.774960851659D-08
     .803604901941D-10  .100000000000D+01  .186700000000D+04  .000000000000D+00
     .340000000000D+01  .000000000000D+00  .558793544769D-08  .107000000000D+03
     .511206000000D+06  .400000000000D+01
26 15 10 24  0  0  0.0 -.950032845140D-04 -.138697942020D-10  .000000000000D+00
     .330000000000D+02  .302812500000D+02  .423803367397D-08 -.169555172770D+01
     .168196856976D-05  .246725743636D-03  .120997428894D-04  .515365737534D+04
     .518400000000D+06  .186264514923D-08 -.382421090333D+00  .447034835815D-07
     .960850931824D+00  .147125000000D+03 -.124462619796D+00 -.792175854447D-08
     .119647840956D-09  .100000000000D+01  .186700000000D+04  .000000000000D+00
     .240000000000D+01  .000000000000D+00  .745058059692D-08  .330000000000D+02
     .511206000000D+06  .400000000000D+01
27 15 10 24  0  0  0.0  .299778766930D-04  .306954461848D-11  .000000000000D+00
     .660000000000D+02  .445312500000D+02  .462233539597D-08  .263176508123D+01
     .231154263020D-05  .269990903325D-02  .435486435890D-05  .515369990158D+04
     .518400000000D+06 -.335276126862D-07  .665088517869D+00  .260770320892D-07
     .968969601976D+00  .299031250000D+03  .302614044907D+00 -.832784688825D-08
     .335371112410D-09  .100000000000D+01  .186700000000D+04  .000000000000D+00
     .340000000000D+01  .000000000000D+00  .186264514923D-08  .660000000000D+02
     .511206000000D+06  .400000000000D+01
28 15 10 24  0  0  0.0  .476513523608D-03  .272848410532D-11  .000000000000D+00
     .480000000000D+02  .467500000000D+02  .351836083957D-08 -.281041574907D+01
     .240094959736D-05  .198208915535D-01  .113267451525D-04  .515370274925D+04
     .518400000000D+06  .189989805222D-06 -.304988113716D+00  .242143869400D-07
     .989613982995D+00  .173906250000D+03 -.165397836812D+01 -.724637326910D-08
     .192508018732D-09  .100000000000D+01  .186700000000D+04  .000000000000D+00
     .340000000000D+01  .000000000000D+00 -.111758708954D-07  .480000000000D+02
     .511206000000D+06  .400000000000D+01
29 15 10 24  0  0  0.0  .641060993075D-03  .193267624127D-11  .000000000000D+00
     .970000000000D+02  .288437500000D+02  .455697553061D-08 -.111023766291D+01
     .161118805408D-05  .848954077810D-03  .410340726376D-05  .515366868210D+04
     .518400000000D+06 -.968575477600D-07  .723239615387D+00 -.558793544769D-08
     .974898067252D+00  .308343750000D+03 -.509298990804D+00 -.832356099544D-08
     .283226083217D-09  .100000000000D+01  .186700000000D+04  .000000000000D+00
     .340000000000D+01  .000000000000D+00 -.102445483208D-07  .970000000000D+02
     .511206000000D+06  .400000000000D+01
30 15 10 24  0  0  0.0  .458979047835D-04  .602540239925D-11  .000000000000D+00
     .670000000000D+02 -.563437500000D+02  .473876881731D-08 -.234376245729D+00
    -.310689210892D-05  .169632642064D-02  .785849988461D-05  .515368319511D+04
     .518400000000D+06  .167638063431D-07 -.135328672484D+01  .447034835815D-07
     .954242336915D+00  .224437500000D+03 -.312098887001D+01 -.827177312398D-08
    -.554308803472D-09  .100000000000D+01  .186700000000D+04  .000000000000D+00
     .240000000000D+01  .000000000000D+00  .325962901115D-08  .670000000000D+02
     .511206000000D+06  .400000000000D+01
31 15 10 24  0  0  0.0  .298059545457D-03 -.147792889038D-11  .000000000000D+00
     .410000000000D+02 -.683125000000D+02  .444125642473D-08 -.142444652294D+00
    -.360980629921D-05  .820742396172D-02  .793114304543D-05  .515361691284D+04
     .518400000000D+06  .949949026108D-07 -.139212479773D+01 -.152736902237D-06
     .973315681431D+00  .235500000000D+03 -.512456499059D+00 -.824070040111D-08
    -.601810782120D-09  .100000000000D+01  .186700000000D+04  .000000000000D+00
     .240000000000D+01  .000000000000D+00 -.135041773319D-07  .410000000000D+02
     .511206000000D+06  .400000000000D+01
32 15 10 24  0  0  0.0 -.514416024089D-05  .117097442853D-10  .000000000000D+00
     .950000000000D+02  .304687500000D+02  .484270171796D-08  .277178143434D+00
     .174343585968D-05  .113515373087D-01  .118725001812D-04  .515367014503D+04
     .518400000000D+06  .219792127609D-06  .284370301923D+01  .484287738800D-07
     .947238218697D+00  .147937500000D+03  .154527416436D+00 -.823284293095D-08
     .295012288446D-09  .100000000000D+01  .186700000000D+04  .000000000000D+00
     .240000000000D+01  .000000000000D+00 -.325962901115D-08  .950000000000D+02
     .511206000000D+06  .400000000000D+01
25 15 10 23 23 59 44.0 -.568307004869D-04 -.557065504836D-11  .000000000000D+00
     .260000000000D+02  .405000000000D+02  .386266089533D-08 -.124261245758D+01
     .199861824512D-05  .466963846702D-02  .128485262394D-04  .515361681747D+04
     .518384000000D+06  .176951289177D-06 -.377231960448D+00  .260770320892D-07
     .978794836288D+00  .142531250000D+03  .728994087038D+00 -.774960851659D-08
     .803604901941D-10  .100000000000D+01  .186700000000D+04  .000000000000D+00
     .240000000000D+01  .000000000000D+00  .558793544769D-08  .260000000000D+02
     .513366000000D+06  .400000000000D+01
27 15 10 23 23 59 44.0  .299774110317D-04  .306954461848D-11  .000000000000D+00
     .400000000000D+01  .445312500000D+02  .462233539597D-08  .262943185709D+01
     .231154263020D-05  .269991590176D-02  .435486435890D-05  .515369989777D+04
     .518384000000D+06 -.335276126862D-07  .665088665624D+00  .260770320892D-07
     .968969588810D+00  .299031250000D+03  .302613625049D+00 -.832820404598D-08
     .335371112410D-09  .100000000000D+01  .186700000000D+04  .000000000000D+00
     .240000000000D+01  .000000000000D+00  .186264514923D-08  .400000000000D+01
     .513786000000D+06  .400000000000D+01
